{"type": "FeatureCollection", "features": [ {"type": "Feature", "properties": {"norad_id": 31955, "name": "FENGYUN 1C DEB", "group": "fengyun-1c-debris", "lat": -28.3851743110112, "lon": 51.51842364621251, "alt_km": 671.9995159290629, "timestamp": "2025-12-24T07:45:06.485029+00:00", "meta": {"OBJECT_NAME": "FENGYUN 1C DEB", "OBJECT_ID": "1999-025CNG", "EPOCH": "2025-12-21T21:41:07.179648", "MEAN_MOTION": 14.64028697, "ECCENTRICITY": 0.00435771, "INCLINATION": 99.2807, "RA_OF_ASC_NODE": 233.8648, "ARG_OF_PERICENTER": 152.6411, "MEAN_ANOMALY": 271.1392, "EPHEMERIS_TYPE": 0, "CLASSIFICATION_TYPE": "U", "NORAD_CAT_ID": 31955, "ELEMENT_SET_NO": 999, "REV_AT_EPOCH": 96691, "BSTAR": 0.0014947189, "MEAN_MOTION_DOT": 7.894e-05, "MEAN_MOTION_DDOT": 0}, "tle": {"line1": "1 31955U 99025CNG 25355.90355532  .00007894  00000+0  14947-2 0  9994", "line2": "2 31955  99.2807 233.8648 0043577 152.6411 271.1392 14.64028697966913"}}, "geometry": {"type": "Point", "coordinates": [51.51842364621251, -28.3851743110112]}}, {"type": "Feature", "properties": {"norad_id": 31959, "name": "FENGYUN 1C DEB", "group": "fengyun-1c-debris", "lat": -78.64432452857214, "lon": 1.1812465474806, "alt_km": 758.5367336720219, "timestamp": "2025-12-24T07:45:06.485039+00:00", "meta": {"OBJECT_NAME": "FENGYUN 1C DEB", "OBJECT_ID": "1999-025CNL", "EPOCH": "2025-12-21T22:06:57.352032", "MEAN_MOTION": 14.46896532, "ECCENTRICITY": 0.00273534, "INCLINATION": 98.5099, "RA_OF_ASC_NODE": 226.9733, "ARG_OF_PERICENTER": 126.577, "MEAN_ANOMALY": 233.7945, "EPHEMERIS_TYPE": 0, "CLASSIFICATION_TYPE": "U", "NORAD_CAT_ID": 31959, "ELEMENT_SET_NO": 999, "REV_AT_EPOCH": 64486, "BSTAR": 0.0023827795, "MEAN_MOTION_DOT": 8.652e-05, "MEAN_MOTION_DDOT": 0}, "tle": {"line1": "1 31959U 99025CNL 25355.92149713  .00008652  00000+0  23828-2 0  9993", "line2": "2 31959  98.5099 226.9733 0027353 126.5770 233.7945 14.46896532644868"}}, "geometry": {"type": "Point", "coordinates": [1.1812465474806, -78.64432452857214]}}, {"type": "Feature", "properties": {"norad_id": 31964, "name": "FENGYUN 1C DEB", "group": "fengyun-1c-debris", "lat": 6.523747825685698, "lon": -56.49865329563745, "alt_km": 719.4398693399125, "timestamp": "2025-12-24T07:45:06.485049+00:00", "meta": {"OBJECT_NAME": "FENGYUN 1C DEB", "OBJECT_ID": "1999-025CNR", "EPOCH": "2025-12-23T02:58:25.746240", "MEAN_MOTION": 14.58706281, "ECCENTRICITY": 0.00284078, "INCLINATION": 98.7007, "RA_OF_ASC_NODE": 121.2429, "ARG_OF_PERICENTER": 357.3424, "MEAN_ANOMALY": 2.7619, "EPHEMERIS_TYPE": 0, "CLASSIFICATION_TYPE": "U", "NORAD_CAT_ID": 31964, "ELEMENT_SET_NO": 999, "REV_AT_EPOCH": 67661, "BSTAR": 0.0025118016, "MEAN_MOTION_DOT": 0.0001175, "MEAN_MOTION_DDOT": 0}, "tle": {"line1": "1 31964U 99025CNR 25357.12390910  .00011750  00000+0  25118-2 0  9997", "line2": "2 31964  98.7007 121.2429 0028407 357.3424   2.7619 14.58706281676619"}}, "geometry": {"type": "Point", "coordinates": [-56.49865329563745, 6.523747825685698]}}, {"type": "Feature", "properties": {"norad_id": 31966, "name": "FENGYUN 1C DEB", "group": "fengyun-1c-debris", "lat": 13.910270446294795, "lon": -25.66417514243916, "alt_km": 651.3435419684738, "timestamp": "2025-12-24T07:45:06.485059+00:00", "meta": {"OBJECT_NAME": "FENGYUN 1C DEB", "OBJECT_ID": "1999-025CNT", "EPOCH": "2025-12-23T16:15:54.267552", "MEAN_MOTION": 14.67691457, "ECCENTRICITY": 0.00860429, "INCLINATION": 99.0173, "RA_OF_ASC_NODE": 151.3719, "ARG_OF_PERICENTER": 240.9283, "MEAN_ANOMALY": 118.3281, "EPHEMERIS_TYPE": 0, "CLASSIFICATION_TYPE": "U", "NORAD_CAT_ID": 31966, "ELEMENT_SET_NO": 999, "REV_AT_EPOCH": 65903, "BSTAR": 0.0013602049, "MEAN_MOTION_DOT": 8.13e-05, "MEAN_MOTION_DDOT": 0}, "tle": {"line1": "1 31966U 99025CNT 25357.67771143  .00008130  00000+0  13602-2 0  9993", "line2": "2 31966  99.0173 151.3719 0086042 240.9283 118.3281 14.67691457659038"}}, "geometry": {"type": "Point", "coordinates": [-25.66417514243916, 13.910270446294795]}}, {"type": "Feature", "properties": {"norad_id": 31972, "name": "FENGYUN 1C DEB", "group": "fengyun-1c-debris", "lat": -43.45850137916058, "lon": -148.65008712025386, "alt_km": 913.8993918914657, "timestamp": "2025-12-24T07:45:06.485069+00:00", "meta": {"OBJECT_NAME": "FENGYUN 1C DEB", "OBJECT_ID": "1999-025CNZ", "EPOCH": "2025-12-22T02:03:55.063872", "MEAN_MOTION": 14.07518261, "ECCENTRICITY": 0.00765265, "INCLINATION": 99.2103, "RA_OF_ASC_NODE": 37.9145, "ARG_OF_PERICENTER": 5.9214, "MEAN_ANOMALY": 50.28, "EPHEMERIS_TYPE": 0, "CLASSIFICATION_TYPE": "U", "NORAD_CAT_ID": 31972, "ELEMENT_SET_NO": 999, "REV_AT_EPOCH": 95092, "BSTAR": 0.00013990636, "MEAN_MOTION_DOT": 1.96e-06, "MEAN_MOTION_DDOT": 0}, "tle": {"line1": "1 31972U 99025CNZ 25356.08605398  .00000196  00000+0  13991-3 0  9998", "line2": "2 31972  99.2103  37.9145 0076526   5.9214  50.2800 14.07518261950929"}}, "geometry": {"type": "Point", "coordinates": [-148.65008712025386, -43.45850137916058]}}, {"type": "Feature", "properties": {"norad_id": 31974, "name": "FENGYUN 1C DEB", "group": "fengyun-1c-debris", "lat": 7.5250284792319375, "lon": -169.87381562334335, "alt_km": 799.8265200842307, "timestamp": "2025-12-24T07:45:06.485079+00:00", "meta": {"OBJECT_NAME": "FENGYUN 1C DEB", "OBJECT_ID": "1999-025CPB", "EPOCH": "2025-12-21T23:30:37.969632", "MEAN_MOTION": 14.2962599, "ECCENTRICITY": 0.00713676, "INCLINATION": 98.3789, "RA_OF_ASC_NODE": 6.7561, "ARG_OF_PERICENTER": 275.2464, "MEAN_ANOMALY": 84.0578, "EPHEMERIS_TYPE": 0, "CLASSIFICATION_TYPE": "U", "NORAD_CAT_ID": 31974, "ELEMENT_SET_NO": 999, "REV_AT_EPOCH": 69554, "BSTAR": 0.0022399521, "MEAN_MOTION_DOT": 5.858e-05, "MEAN_MOTION_DDOT": 0}, "tle": {"line1": "1 31974U 99025CPB 25355.97960613  .00005858  00000+0  22400-2 0  9995", "line2": "2 31974  98.3789   6.7561 0071367 275.2464  84.0578 14.29625990695547"}}, "geometry": {"type": "Point", "coordinates": [-169.87381562334335, 7.5250284792319375]}}, {"type": "Feature", "properties": {"norad_id": 31978, "name": "FENGYUN 1C DEB", "group": "fengyun-1c-debris", "lat": -38.83282514672267, "lon": 158.57409054187116, "alt_km": 925.436496154719, "timestamp": "2025-12-24T07:45:06.485089+00:00", "meta": {"OBJECT_NAME": "FENGYUN 1C DEB", "OBJECT_ID": "1999-025CPF", "EPOCH": "2025-12-18T09:15:01.115712", "MEAN_MOTION": 13.63124115, "ECCENTRICITY": 0.02630419, "INCLINATION": 98.3793, "RA_OF_ASC_NODE": 146.6417, "ARG_OF_PERICENTER": 35.0311, "MEAN_ANOMALY": 326.7827, "EPHEMERIS_TYPE": 0, "CLASSIFICATION_TYPE": "U", "NORAD_CAT_ID": 31978, "ELEMENT_SET_NO": 999, "REV_AT_EPOCH": 91667, "BSTAR": 0.0010168637, "MEAN_MOTION_DOT": 9.73e-06, "MEAN_MOTION_DDOT": 0}, "tle": {"line1": "1 31978U 99025CPF 25352.38542958  .00000973  00000+0  10169-2 0  9991", "line2": "2 31978  98.3793 146.6417 0263041  35.0311 326.7827 13.63124115916678"}}, "geometry": {"type": "Point", "coordinates": [158.57409054187116, -38.83282514672267]}}, {"type": "Feature", "properties": {"norad_id": 31979, "name": "FENGYUN 1C DEB", "group": "fengyun-1c-debris", "lat": 43.77658871758026, "lon": -80.26148843479754, "alt_km": 1079.1602053059714, "timestamp": "2025-12-24T07:45:06.485098+00:00", "meta": {"OBJECT_NAME": "FENGYUN 1C DEB", "OBJECT_ID": "1999-025CPG", "EPOCH": "2025-12-22T23:30:02.012544", "MEAN_MOTION": 13.69357074, "ECCENTRICITY": 0.02682196, "INCLINATION": 99.3764, "RA_OF_ASC_NODE": 89.3202, "ARG_OF_PERICENTER": 254.4625, "MEAN_ANOMALY": 102.6764, "EPHEMERIS_TYPE": 0, "CLASSIFICATION_TYPE": "U", "NORAD_CAT_ID": 31979, "ELEMENT_SET_NO": 999, "REV_AT_EPOCH": 58052, "BSTAR": 0.0034124263, "MEAN_MOTION_DOT": 3.773e-05, "MEAN_MOTION_DDOT": 0}, "tle": {"line1": "1 31979U 99025CPG 25356.97918996  .00003773  00000+0  34124-2 0  9998", "line2": "2 31979  99.3764  89.3202 0268219 254.4625 102.6764 13.69357074580520"}}, "geometry": {"type": "Point", "coordinates": [-80.26148843479754, 43.77658871758026]}}, {"type": "Feature", "properties": {"norad_id": 31980, "name": "FENGYUN 1C DEB", "group": "fengyun-1c-debris", "lat": 67.22880053663923, "lon": 62.07165403005794, "alt_km": 819.9465533313687, "timestamp": "2025-12-24T07:45:06.485108+00:00", "meta": {"OBJECT_NAME": "FENGYUN 1C DEB", "OBJECT_ID": "1999-025CPH", "EPOCH": "2025-12-16T11:57:41.696928", "MEAN_MOTION": 13.32153551, "ECCENTRICITY": 0.04281038, "INCLINATION": 97.6145, "RA_OF_ASC_NODE": 74.8269, "ARG_OF_PERICENTER": 103.3204, "MEAN_ANOMALY": 261.6022, "EPHEMERIS_TYPE": 0, "CLASSIFICATION_TYPE": "U", "NORAD_CAT_ID": 31980, "ELEMENT_SET_NO": 999, "REV_AT_EPOCH": 89720, "BSTAR": 0.00040322723, "MEAN_MOTION_DOT": 3.01e-06, "MEAN_MOTION_DDOT": 0}, "tle": {"line1": "1 31980U 99025CPH 25350.49839927  .00000301  00000+0  40323-3 0  9990", "line2": "2 31980  97.6145  74.8269 0428103 103.3204 261.6022 13.32153551897206"}}, "geometry": {"type": "Point", "coordinates": [62.07165403005794, 67.22880053663923]}}, {"type": "Feature", "properties": {"norad_id": 31984, "name": "FENGYUN 1C DEB", "group": "fengyun-1c-debris", "lat": -64.19582719240827, "lon": 164.1878254898824, "alt_km": 794.5146869589307, "timestamp": "2025-12-24T07:45:06.485118+00:00", "meta": {"OBJECT_NAME": "FENGYUN 1C DEB", "OBJECT_ID": "1999-025CPM", "EPOCH": "2025-12-18T07:09:32.915232", "MEAN_MOTION": 14.22968839, "ECCENTRICITY": 0.00628019, "INCLINATION": 98.5578, "RA_OF_ASC_NODE": 356.4784, "ARG_OF_PERICENTER": 210.9858, "MEAN_ANOMALY": 148.7609, "EPHEMERIS_TYPE": 0, "CLASSIFICATION_TYPE": "U", "NORAD_CAT_ID": 31984, "ELEMENT_SET_NO": 999, "REV_AT_EPOCH": 94452, "BSTAR": 0.00030022048, "MEAN_MOTION_DOT": 6.47e-06, "MEAN_MOTION_DDOT": 0}, "tle": {"line1": "1 31984U 99025CPM 25352.29829763  .00000647  00000+0  30022-3 0  9999", "line2": "2 31984  98.5578 356.4784 0062801 210.9858 148.7609 14.22968839944527"}}, "geometry": {"type": "Point", "coordinates": [164.1878254898824, -64.19582719240827]}}]}